[{"OBJECT_NAME":"STARLINK-30918","OBJECT_ID":"2023-177Q","EPOCH":"2026-03-09T22:00:01.999584","MEAN_MOTION":15.26731725,"ECCENTRICITY":0.00016358,"INCLINATION":43.0004,"RA_OF_ASC_NODE":349.2604,"ARG_OF_PERICENTER":263.222,"MEAN_ANOMALY":68.6166,"EPHEMERIS_TYPE":0,"CLASSIFICATION_TYPE":"U","NORAD_CAT_ID":58365,"ELEMENT_SET_NO":999,"REV_AT_EPOCH":578,"BSTAR":-0.00013246726,"MEAN_MOTION_DOT":-3.81e-5,"MEAN_MOTION_DDOT":0},{"OBJECT_NAME":"OBJECT A","OBJECT_ID":"2025-013A","EPOCH":"2026-03-09T23:29:31.895232","MEAN_MOTION":15.29260221,"ECCENTRICITY":0.0010321,"INCLINATION":97.6364,"RA_OF_ASC_NODE":244.5149,"ARG_OF_PERICENTER":282.3775,"MEAN_ANOMALY":77.6309,"EPHEMERIS_TYPE":0,"CLASSIFICATION_TYPE":"U","NORAD_CAT_ID":62729,"ELEMENT_SET_NO":999,"REV_AT_EPOCH":6276,"BSTAR":0.0013206527,"MEAN_MOTION_DOT":0.00037616,"MEAN_MOTION_DDOT":0}]
